<?xml version="1.0" encoding="UTF-8"?>
<kml xmlns="http://www.opengis.net/kml/2.2">
  <Document>
    <name>Untitled map</name>
    <description/>
    <Style id="icon-1899-DB4436-nodesc-normal">
      <IconStyle>
        <color>ff3644db</color>
        <scale>1</scale>
        <Icon>
          <href>https://www.gstatic.com/mapspro/images/stock/503-wht-blank_maps.png</href>
        </Icon>
        <hotSpot x="32" xunits="pixels" y="64" yunits="insetPixels"/>
      </IconStyle>
      <LabelStyle>
        <scale>0</scale>
      </LabelStyle>
      <BalloonStyle>
        <text><![CDATA[<h3>$[name]</h3>]]></text>
      </BalloonStyle>
    </Style>
    <Style id="icon-1899-DB4436-nodesc-highlight">
      <IconStyle>
        <color>ff3644db</color>
        <scale>1</scale>
        <Icon>
          <href>https://www.gstatic.com/mapspro/images/stock/503-wht-blank_maps.png</href>
        </Icon>
        <hotSpot x="32" xunits="pixels" y="64" yunits="insetPixels"/>
      </IconStyle>
      <LabelStyle>
        <scale>1</scale>
      </LabelStyle>
      <BalloonStyle>
        <text><![CDATA[<h3>$[name]</h3>]]></text>
      </BalloonStyle>
    </Style>
    <StyleMap id="icon-1899-DB4436-nodesc">
      <Pair>
        <key>normal</key>
        <styleUrl>#icon-1899-DB4436-nodesc-normal</styleUrl>
      </Pair>
      <Pair>
        <key>highlight</key>
        <styleUrl>#icon-1899-DB4436-nodesc-highlight</styleUrl>
      </Pair>
    </StyleMap>
    <Style id="line-1267FF-5000-nodesc-normal">
      <LineStyle>
        <color>ffff6712</color>
        <width>5</width>
      </LineStyle>
      <BalloonStyle>
        <text><![CDATA[<h3>$[name]</h3>]]></text>
      </BalloonStyle>
    </Style>
    <Style id="line-1267FF-5000-nodesc-highlight">
      <LineStyle>
        <color>ffff6712</color>
        <width>7.5</width>
      </LineStyle>
      <BalloonStyle>
        <text><![CDATA[<h3>$[name]</h3>]]></text>
      </BalloonStyle>
    </Style>
    <StyleMap id="line-1267FF-5000-nodesc">
      <Pair>
        <key>normal</key>
        <styleUrl>#line-1267FF-5000-nodesc-normal</styleUrl>
      </Pair>
      <Pair>
        <key>highlight</key>
        <styleUrl>#line-1267FF-5000-nodesc-highlight</styleUrl>
      </Pair>
    </StyleMap>
    <Folder>
      <name>Untitled layer</name>
    </Folder>
    <Folder>
      <name>Route A</name>
      <Placemark>
        <name>Route A</name>
        <styleUrl>#line-1267FF-5000-nodesc</styleUrl>
        <LineString>
          <tessellate>1</tessellate>
          <coordinates>
            116.33297,-8.65677,0
            116.33291,-8.65696,0
            116.3329,-8.65706,0
            116.33287,-8.65711,0
            116.33281,-8.65721,0
            116.33278,-8.6573,0
            116.33275,-8.6574,0
            116.33275,-8.65748,0
            116.33275,-8.65756,0
            116.33275,-8.65764,0
            116.33273,-8.65775,0
            116.3327,-8.6579,0
            116.33279,-8.65793,0
            116.33282,-8.65795,0
            116.33286,-8.65798,0
            116.3329,-8.65802,0
            116.33295,-8.65808,0
            116.33301,-8.65814,0
            116.33305,-8.65819,0
            116.33306,-8.6582,0
            116.33307,-8.65822,0
            116.33308,-8.65824,0
            116.33308,-8.65826,0
            116.33305,-8.65855,0
            116.333,-8.6591,0
            116.33341,-8.65922,0
            116.33392,-8.65937,0
            116.33512,-8.65979,0
            116.33575,-8.66006,0
            116.33604,-8.66017,0
            116.33624,-8.66023,0
            116.33651,-8.66031,0
            116.33672,-8.66036,0
            116.33739,-8.66051,0
            116.33762,-8.66057,0
            116.33786,-8.66065,0
            116.33799,-8.66071,0
            116.33819,-8.66081,0
            116.33825,-8.66082,0
            116.33889,-8.66104,0
            116.33959,-8.66134,0
            116.33967,-8.66137,0
            116.33984,-8.66144,0
            116.34048,-8.66171,0
            116.34051,-8.66172,0
            116.34097,-8.66192,0
            116.34089,-8.66207,0
            116.34069,-8.66237,0
            116.34068,-8.66238,0
            116.34059,-8.66252,0
            116.34055,-8.66257,0
            116.34023,-8.66315,0
            116.34019,-8.66324,0
            116.33997,-8.66375,0
            116.33992,-8.66386,0
            116.33985,-8.66401,0
            116.33974,-8.6643,0
            116.33973,-8.66432,0
            116.33968,-8.66445,0
            116.33967,-8.66448,0
            116.33962,-8.66461,0
            116.3396,-8.66465,0
            116.3396,-8.66467,0
            116.33956,-8.66475,0
            116.33953,-8.66484,0
            116.33953,-8.66485,0
            116.33952,-8.66494,0
            116.33951,-8.66496,0
            116.33951,-8.66504,0
            116.33951,-8.66519,0
            116.33954,-8.66534,0
            116.33954,-8.66546,0
            116.33952,-8.66556,0
            116.33946,-8.66563,0
            116.33945,-8.66563,0
            116.33938,-8.66568,0
            116.33921,-8.6658,0
            116.33912,-8.66589,0
            116.33904,-8.666,0
            116.33894,-8.6662,0
            116.33866,-8.66681,0
            116.33876,-8.66687,0
            116.33889,-8.66695,0
            116.33894,-8.66699,0
            116.33901,-8.66706,0
            116.33905,-8.66709,0
            116.33909,-8.66714,0
            116.33919,-8.66723,0
            116.33934,-8.66735,0
            116.33936,-8.66737,0
            116.33942,-8.66742,0
            116.3395,-8.66749,0
            116.33954,-8.66752,0
            116.3396,-8.66758,0
            116.33963,-8.66761,0
            116.33965,-8.66762,0
            116.33968,-8.66763,0
            116.3397,-8.66764,0
            116.33973,-8.66764,0
            116.33977,-8.66764,0
            116.33983,-8.66764,0
            116.34,-8.66765,0
            116.34018,-8.66767,0
            116.34025,-8.66768,0
            116.34038,-8.6677,0
            116.34076,-8.66773,0
            116.34094,-8.66776,0
            116.34114,-8.66781,0
            116.34115,-8.66781,0
            116.34138,-8.66785,0
            116.34143,-8.66786,0
            116.34146,-8.66786,0
            116.34154,-8.66787,0
            116.34179,-8.66789,0
            116.34182,-8.66789,0
            116.34196,-8.66789,0
            116.34208,-8.66788,0
            116.34219,-8.66786,0
            116.34228,-8.66785,0
            116.34246,-8.66781,0
            116.34251,-8.66781,0
            116.34256,-8.66781,0
            116.34263,-8.66781,0
            116.34266,-8.66782,0
            116.34269,-8.66782,0
            116.34271,-8.66783,0
            116.34273,-8.66784,0
            116.34274,-8.66785,0
            116.34276,-8.66786,0
            116.34277,-8.66787,0
            116.34285,-8.66801,0
            116.34292,-8.66813,0
            116.34293,-8.66814,0
            116.34294,-8.66815,0
            116.34295,-8.66817,0
            116.34297,-8.66818,0
            116.34299,-8.6682,0
            116.34323,-8.6683,0
            116.34336,-8.66836,0
            116.34357,-8.66846,0
            116.34358,-8.66847,0
            116.34362,-8.66848,0
            116.34368,-8.66849,0
            116.3437,-8.6685,0
            116.34372,-8.66851,0
            116.34373,-8.66851,0
            116.34375,-8.66853,0
            116.34377,-8.66854,0
            116.34378,-8.66855,0
            116.34395,-8.66873,0
            116.34414,-8.66898,0
            116.34418,-8.66904,0
            116.34419,-8.66906,0
            116.3442,-8.66908,0
            116.34423,-8.66921,0
            116.34424,-8.66923,0
            116.34424,-8.66924,0
            116.34425,-8.66925,0
            116.34426,-8.66926,0
            116.34428,-8.66928,0
            116.34445,-8.66938,0
            116.34455,-8.66944,0
            116.34481,-8.66961,0
            116.34485,-8.66963,0
            116.34491,-8.66964,0
            116.34495,-8.66965,0
            116.345,-8.66965,0
            116.34505,-8.66965,0
            116.34521,-8.66964,0
            116.3454,-8.66963,0
            116.34547,-8.66962,0
            116.34552,-8.66962,0
            116.34558,-8.66961,0
            116.34562,-8.6696,0
            116.34572,-8.66959,0
            116.34576,-8.66959,0
            116.34577,-8.66959,0
            116.34578,-8.66959,0
            116.34585,-8.66959,0
            116.34591,-8.66959,0
            116.34594,-8.6696,0
            116.34597,-8.6696,0
            116.34601,-8.66961,0
            116.34604,-8.66962,0
            116.34607,-8.66963,0
            116.3461,-8.66965,0
            116.34613,-8.66969,0
            116.34616,-8.66972,0
            116.3462,-8.6698,0
            116.34624,-8.66987,0
            116.34624,-8.66988,0
            116.34627,-8.66993,0
            116.34627,-8.66995,0
            116.34629,-8.66997,0
            116.34634,-8.67005,0
            116.34638,-8.67009,0
            116.34639,-8.6701,0
            116.3464,-8.67011,0
            116.34642,-8.67014,0
            116.34645,-8.67015,0
            116.34645,-8.67016,0
            116.34649,-8.67018,0
            116.3465,-8.67019,0
            116.34651,-8.6702,0
            116.34656,-8.67022,0
            116.34664,-8.67025,0
            116.34671,-8.67028,0
            116.34678,-8.6703,0
            116.347,-8.67034,0
            116.34718,-8.67036,0
            116.34722,-8.67037,0
            116.34727,-8.67038,0
            116.34733,-8.6704,0
            116.34735,-8.67041,0
            116.3474,-8.67043,0
            116.34745,-8.67045,0
            116.34749,-8.67046,0
            116.34754,-8.67047,0
            116.3476,-8.67048,0
            116.34761,-8.67048,0
            116.34767,-8.67049,0
            116.34782,-8.67049,0
            116.348,-8.67047,0
            116.34807,-8.67046,0
            116.34819,-8.67045,0
            116.34826,-8.67045,0
            116.34832,-8.67045,0
            116.34839,-8.67046,0
            116.34846,-8.67047,0
            116.34851,-8.67046,0
            116.34854,-8.67046,0
            116.34858,-8.67046,0
            116.34872,-8.67044,0
            116.34904,-8.67039,0
            116.34911,-8.67038,0
            116.34932,-8.67038,0
            116.34963,-8.67038,0
            116.34984,-8.6704,0
            116.34995,-8.67043,0
            116.35014,-8.6705,0
            116.35036,-8.67059,0
            116.35053,-8.67066,0
            116.35061,-8.67069,0
            116.35075,-8.6707,0
            116.35089,-8.6707,0
            116.35106,-8.67068,0
            116.35127,-8.67072,0
            116.35136,-8.67076,0
            116.3514,-8.67078,0
            116.35142,-8.67079,0
            116.35146,-8.67083,0
            116.3515,-8.67089,0
            116.35155,-8.67103,0
            116.35158,-8.67111,0
            116.35161,-8.67116,0
            116.35165,-8.67119,0
            116.3517,-8.67123,0
          </coordinates>
        </LineString>
      </Placemark>
      <Placemark>
        <name>88VM+G7W, Jl. Semparu, Muncan, Kec. Kopang, Kabupaten Lombok Tengah, Nusa Tenggara Bar. 83553, Indonesia</name>
        <styleUrl>#icon-1899-DB4436-nodesc</styleUrl>
        <Point>
          <coordinates>
            116.3329658,-8.6567655,0
          </coordinates>
        </Point>
      </Placemark>
      <Placemark>
        <name>89H2+FWJ Jl. Kenangan Darmaji Kopang, Central Lombok Regency, West Nusa Tenggara 83553, Indonesia</name>
        <styleUrl>#icon-1899-DB4436-nodesc</styleUrl>
        <Point>
          <coordinates>
            116.3517029,-8.6712274,0
          </coordinates>
        </Point>
      </Placemark>
    </Folder>
  </Document>
</kml>
